0 FENGYUN 1C DEB
1 32357U 99025CZA 13281.02571454  .00001304  00000-0  86024-3 0  3139
2 32357 098.9031 357.2598 0597727 057.3102 308.4249 13.39652189308688
0 FENGYUN 1C DEB
1 32357U 99025CZA 13282.44468018  .00001314  00000-0  86737-3 0  3140
2 32357 098.9037 358.5162 0597430 053.8100 311.6858 13.39656152308872
0 FENGYUN 1C DEB
1 32357U 99025CZA 13284.01299875  .00001367  00000-0  90092-3 0  3156
2 32357 098.9060 359.9084 0597561 049.9656 315.2465 13.39661442309089
0 FENGYUN 1C DEB
1 32357U 99025CZA 13285.05853788  .00001414  00000-0  93022-3 0  3160
2 32357 098.9049 000.8331 0597870 047.3198 317.6839 13.39665410309225
0 FENGYUN 1C DEB
1 32357U 99025CZA 13287.00024141  .00001484  00000-0  97281-3 0  3179
2 32357 098.9032 002.5497 0598617 042.3273 322.2582 13.39672685309485
0 FENGYUN 1C DEB
1 32357U 99025CZA 13289.01660935  .00001544  00000-0  10168-2 0  3185
2 32357 098.9063 004.3322 0597062 037.3727 326.7769 13.39679870309756
0 FENGYUN 1C DEB
1 32357U 99025CZA 13290.43551912  .00001661  00000-0  10933-2 0  3198
2 32357 098.9030 005.5769 0596714 033.6265 330.1918 13.39687363309949
0 FENGYUN 1C DEB
1 32357U 99025CZA 13292.00376733  .00001728  00000-0  11400-2 0  3205
2 32357 098.9066 006.9677 0595867 029.8409 333.5513 13.39694038310156
0 FENGYUN 1C DEB
1 32357U 99025CZA 13293.42265909  .00001805  00000-0  11893-2 0  3217
2 32357 098.9040 008.2207 0596051 026.1834 336.8396 13.39700794310343
0 FENGYUN 1C DEB
1 32357U 99025CZA 13294.02008182  .00001906  00000-0  12562-2 0  3229
2 32357 098.9056 008.7541 0595659 024.8108 338.0608 13.39704549310429
